{
  "norad_id": 58882,
  "name": "STARLINK-31323",
  "history": [
    {
      "epoch": "2026-03-28T16:54:21.032640",
      "apogee_km": 475.89593038143175,
      "perigee_km": 474.59378782820204,
      "latitude_deg": -22.078767523135244,
      "longitude_deg": 135.8233695998788,
      "semi_major_axis_km": 6853.381859104817,
      "eccentricity": 9.5e-05,
      "inclination_deg": 53.1612,
      "raan_deg": 234.0071,
      "arg_perigee_deg": 89.885,
      "mean_anomaly_deg": 270.226,
      "mean_motion_rev_day": 15.30190023
    }
  ]
}