{"fetched_at":"2026-03-29T16:36:15Z","count":15609,"tles":[{"name":"STARLINK-31323","line1":"1 58882U 24020G   26087.70441010 -.00002271  00000+0 -64605-4 0  9997","line2":"2 58882  53.1612 234.0071 0000950  89.8850 270.2260 15.30190023120983","category":"Starlink"}]}